[{"OBJECT_NAME":"FLOCK 4Q-7","OBJECT_ID":"2023-174BQ","EPOCH":"2026-03-07T11:42:03.840480","MEAN_MOTION":15.49046178,"ECCENTRICITY":0.00079113,"INCLINATION":97.3935,"RA_OF_ASC_NODE":155.0141,"ARG_OF_PERICENTER":146.2811,"MEAN_ANOMALY":213.8944,"EPHEMERIS_TYPE":0,"CLASSIFICATION_TYPE":"U","NORAD_CAT_ID":58318,"ELEMENT_SET_NO":999,"REV_AT_EPOCH":12997,"BSTAR":0.00086257036,"MEAN_MOTION_DOT":0.0004692,"MEAN_MOTION_DDOT":0},{"OBJECT_NAME":"FLOCK 4Q-2","OBJECT_ID":"2023-174BS","EPOCH":"2026-03-07T14:29:20.011776","MEAN_MOTION":15.44877701,"ECCENTRICITY":0.00080446,"INCLINATION":97.3862,"RA_OF_ASC_NODE":152.9765,"ARG_OF_PERICENTER":145.0697,"MEAN_ANOMALY":215.1081,"EPHEMERIS_TYPE":0,"CLASSIFICATION_TYPE":"U","NORAD_CAT_ID":58320,"ELEMENT_SET_NO":999,"REV_AT_EPOCH":12989,"BSTAR":0.00076171392,"MEAN_MOTION_DOT":0.0003583,"MEAN_MOTION_DDOT":0},{"OBJECT_NAME":"FLOCK 4Q-9","OBJECT_ID":"2023-174BU","EPOCH":"2026-03-07T05:36:11.455488","MEAN_MOTION":15.4452172,"ECCENTRICITY":0.0008119,"INCLINATION":97.3901,"RA_OF_ASC_NODE":152.6438,"ARG_OF_PERICENTER":147.7593,"MEAN_ANOMALY":212.4153,"EPHEMERIS_TYPE":0,"CLASSIFICATION_TYPE":"U","NORAD_CAT_ID":58322,"ELEMENT_SET_NO":999,"REV_AT_EPOCH":12982,"BSTAR":0.00084121,"MEAN_MOTION_DOT":0.00039121,"MEAN_MOTION_DDOT":0},{"OBJECT_NAME":"FLOCK 4Q-4","OBJECT_ID":"2023-174BZ","EPOCH":"2026-03-07T04:04:15.736512","MEAN_MOTION":15.44118322,"ECCENTRICITY":0.00075898,"INCLINATION":97.3856,"RA_OF_ASC_NODE":151.9551,"ARG_OF_PERICENTER":164.7799,"MEAN_ANOMALY":195.3679,"EPHEMERIS_TYPE":0,"CLASSIFICATION_TYPE":"U","NORAD_CAT_ID":58327,"ELEMENT_SET_NO":999,"REV_AT_EPOCH":12979,"BSTAR":0.00057311183,"MEAN_MOTION_DOT":0.00026216,"MEAN_MOTION_DDOT":0},{"OBJECT_NAME":"FLOCK 4Q-13","OBJECT_ID":"2023-174CA","EPOCH":"2026-03-07T05:00:01.873728","MEAN_MOTION":15.46800178,"ECCENTRICITY":0.0007559,"INCLINATION":97.4018,"RA_OF_ASC_NODE":154.3975,"ARG_OF_PERICENTER":158.9989,"MEAN_ANOMALY":201.1573,"EPHEMERIS_TYPE":0,"CLASSIFICATION_TYPE":"U","NORAD_CAT_ID":58328,"ELEMENT_SET_NO":999,"REV_AT_EPOCH":12988,"BSTAR":0.00079417,"MEAN_MOTION_DOT":0.00039914,"MEAN_MOTION_DDOT":0},{"OBJECT_NAME":"FLOCK 4Q-21","OBJECT_ID":"2023-174CB","EPOCH":"2026-03-07T04:45:26.612352","MEAN_MOTION":15.57098304,"ECCENTRICITY":0.00059807,"INCLINATION":97.3932,"RA_OF_ASC_NODE":157.4336,"ARG_OF_PERICENTER":164.6462,"MEAN_ANOMALY":195.4975,"EPHEMERIS_TYPE":0,"CLASSIFICATION_TYPE":"U","NORAD_CAT_ID":58329,"ELEMENT_SET_NO":999,"REV_AT_EPOCH":13010,"BSTAR":0.0007046853,"MEAN_MOTION_DOT":0.00051215,"MEAN_MOTION_DDOT":0},{"OBJECT_NAME":"FLOCK 4BE-18","OBJECT_ID":"2024-149N","EPOCH":"2026-03-07T11:10:38.657280","MEAN_MOTION":15.38170927,"ECCENTRICITY":0.00031871,"INCLINATION":97.3772,"RA_OF_ASC_NODE":149.3825,"ARG_OF_PERICENTER":249.6107,"MEAN_ANOMALY":110.4796,"EPHEMERIS_TYPE":0,"CLASSIFICATION_TYPE":"U","NORAD_CAT_ID":60480,"ELEMENT_SET_NO":999,"REV_AT_EPOCH":8665,"BSTAR":0.00079122146,"MEAN_MOTION_DOT":0.00029741,"MEAN_MOTION_DDOT":0},{"OBJECT_NAME":"FLOCK 4BE-7","OBJECT_ID":"2024-149P","EPOCH":"2026-03-07T11:27:15.252768","MEAN_MOTION":15.36185085,"ECCENTRICITY":0.00021447,"INCLINATION":97.3806,"RA_OF_ASC_NODE":148.9876,"ARG_OF_PERICENTER":241.2934,"MEAN_ANOMALY":118.8095,"EPHEMERIS_TYPE":0,"CLASSIFICATION_TYPE":"U","NORAD_CAT_ID":60481,"ELEMENT_SET_NO":999,"REV_AT_EPOCH":8661,"BSTAR":0.00067355531,"MEAN_MOTION_DOT":0.00023715,"MEAN_MOTION_DDOT":0},{"OBJECT_NAME":"FLOCK 4BE-26","OBJECT_ID":"2024-149S","EPOCH":"2026-03-07T11:42:29.104704","MEAN_MOTION":15.43777905,"ECCENTRICITY":0.00059352,"INCLINATION":97.376,"RA_OF_ASC_NODE":149.3093,"ARG_OF_PERICENTER":247.3261,"MEAN_ANOMALY":112.7359,"EPHEMERIS_TYPE":0,"CLASSIFICATION_TYPE":"U","NORAD_CAT_ID":60484,"ELEMENT_SET_NO":999,"REV_AT_EPOCH":8665,"BSTAR":0.0028610204,"MEAN_MOTION_DOT":0.00131432,"MEAN_MOTION_DDOT":0},{"OBJECT_NAME":"FLOCK 4BE-36","OBJECT_ID":"2024-149U","EPOCH":"2026-03-07T04:06:11.520288","MEAN_MOTION":15.39017108,"ECCENTRICITY":0.0002807,"INCLINATION":97.3786,"RA_OF_ASC_NODE":149.629,"ARG_OF_PERICENTER":264.8346,"MEAN_ANOMALY":95.2579,"EPHEMERIS_TYPE":0,"CLASSIFICATION_TYPE":"U","NORAD_CAT_ID":60486,"ELEMENT_SET_NO":999,"REV_AT_EPOCH":8664,"BSTAR":0.00062672865,"MEAN_MOTION_DOT":0.0002418,"MEAN_MOTION_DDOT":0},{"OBJECT_NAME":"FLOCK 4BE-25","OBJECT_ID":"2024-149V","EPOCH":"2026-03-07T03:57:36.454464","MEAN_MOTION":15.35894404,"ECCENTRICITY":0.00014475,"INCLINATION":97.3843,"RA_OF_ASC_NODE":148.8235,"ARG_OF_PERICENTER":228.0696,"MEAN_ANOMALY":132.0425,"EPHEMERIS_TYPE":0,"CLASSIFICATION_TYPE":"U","NORAD_CAT_ID":60487,"ELEMENT_SET_NO":999,"REV_AT_EPOCH":8656,"BSTAR":0.00052442615,"MEAN_MOTION_DOT":0.00018262,"MEAN_MOTION_DDOT":0},{"OBJECT_NAME":"FLOCK 4BE-31","OBJECT_ID":"2024-149W","EPOCH":"2026-03-07T11:11:14.963424","MEAN_MOTION":15.39832381,"ECCENTRICITY":0.00017849,"INCLINATION":97.3849,"RA_OF_ASC_NODE":150.5457,"ARG_OF_PERICENTER":252.3797,"MEAN_ANOMALY":107.7254,"EPHEMERIS_TYPE":0,"CLASSIFICATION_TYPE":"U","NORAD_CAT_ID":60488,"ELEMENT_SET_NO":999,"REV_AT_EPOCH":8670,"BSTAR":0.00084297167,"MEAN_MOTION_DOT":0.00033469,"MEAN_MOTION_DDOT":0},{"OBJECT_NAME":"FLOCK 4BE-20","OBJECT_ID":"2024-149X","EPOCH":"2026-03-07T11:13:49.082016","MEAN_MOTION":15.35187472,"ECCENTRICITY":0.00025879,"INCLINATION":97.3747,"RA_OF_ASC_NODE":148.2613,"ARG_OF_PERICENTER":252.899,"MEAN_ANOMALY":107.197,"EPHEMERIS_TYPE":0,"CLASSIFICATION_TYPE":"U","NORAD_CAT_ID":60489,"ELEMENT_SET_NO":999,"REV_AT_EPOCH":8659,"BSTAR":0.00060206188,"MEAN_MOTION_DOT":0.00020516,"MEAN_MOTION_DDOT":0},{"OBJECT_NAME":"FLOCK 4BE-23","OBJECT_ID":"2024-149Y","EPOCH":"2026-03-07T04:09:35.530560","MEAN_MOTION":15.34813634,"ECCENTRICITY":0.00021273,"INCLINATION":97.3825,"RA_OF_ASC_NODE":148.287,"ARG_OF_PERICENTER":267.1541,"MEAN_ANOMALY":92.9459,"EPHEMERIS_TYPE":0,"CLASSIFICATION_TYPE":"U","NORAD_CAT_ID":60490,"ELEMENT_SET_NO":999,"REV_AT_EPOCH":8653,"BSTAR":0.00051031752,"MEAN_MOTION_DOT":0.00017164,"MEAN_MOTION_DDOT":0},{"OBJECT_NAME":"FLOCK 4BE-15","OBJECT_ID":"2024-149Z","EPOCH":"2026-03-07T04:13:45.733728","MEAN_MOTION":15.39893227,"ECCENTRICITY":0.00030347,"INCLINATION":97.3765,"RA_OF_ASC_NODE":149.3251,"ARG_OF_PERICENTER":315.5766,"MEAN_ANOMALY":44.5237,"EPHEMERIS_TYPE":0,"CLASSIFICATION_TYPE":"U","NORAD_CAT_ID":60491,"ELEMENT_SET_NO":999,"REV_AT_EPOCH":8663,"BSTAR":0.0020905349,"MEAN_MOTION_DOT":0.00083846,"MEAN_MOTION_DDOT":0},{"OBJECT_NAME":"FLOCK 4BE-17","OBJECT_ID":"2024-149AA","EPOCH":"2026-03-07T05:16:55.087392","MEAN_MOTION":15.36538004,"ECCENTRICITY":0.0002214,"INCLINATION":97.3817,"RA_OF_ASC_NODE":149.0072,"ARG_OF_PERICENTER":244.6332,"MEAN_ANOMALY":115.4683,"EPHEMERIS_TYPE":0,"CLASSIFICATION_TYPE":"U","NORAD_CAT_ID":60492,"ELEMENT_SET_NO":999,"REV_AT_EPOCH":8658,"BSTAR":0.0006951,"MEAN_MOTION_DOT":0.00024758,"MEAN_MOTION_DDOT":0}]
